LEMUR-2-CELIJO-SB-PK    
1 66781U 25276DW  26155.16094765  .00008136  00000+0  66125-3 0  9997
2 66781  97.5288 226.3650 0008650 164.5799 195.5690 14.99810006 20671
LEMUR-2-FINNIAN         
1 66782U 25276DX  26155.14138336  .00007774  00000+0  62562-3 0  9997
2 66782  97.5248 226.5515 0008249 128.5757 231.6208 15.00205024 18044
LEMUR-2-STARLIGHT       
1 66783U 25276DY  26155.42000285  .00007711  00000+0  64094-3 0  9993
2 66783  97.5272 226.4935 0015153 164.9990 195.1686 14.98899262 28282
LEMUR-2-TARTIFLETTE     
1 66784U 25276DZ  26155.41869970  .00009293  00000+0  77136-3 0  9995
2 66784  97.5270 226.4977 0013775 171.3405 188.8059 14.98913714 28280
LEMUR-2-VUKASIN         
1 66785U 25276EA  26155.42338216  .00007819  00000+0  62925-3 0  9993
2 66785  97.5302 226.7687 0006161 154.8937 205.2587 15.00215096 28232
LEMUR-2-HOTSPUR-TOM     
1 66786U 25276EB  26155.14319641  .00007990  00000+0  66596-3 0  9992
2 66786  97.5238 226.2182 0014978 168.5926 191.5640 14.98786677 28175
LEMUR-2-MYRA            
1 66787U 25276EC  26155.65378012  .00007297  00000+0  58872-3 0  9994
2 66787  97.5220 226.9473 0014973 183.2518 176.8611 15.00070578 28335
LEMUR-2 FIKRETDENGIZ    
1 67363U 26004A   26154.55319882  .00004718  00000+0  51674-3 0  9991
2 67363  97.8015 153.3224 0008838 173.3369 186.7966 14.88221873 21253
TWILIGHT-1 OBJECT B     
1 67364U 26004B   26154.97575868  .00001747  00000+0  19779-3 0  9995
2 67364  97.8058 153.7586 0008983 163.3184 196.8330 14.87654413 21325
LEMUR-2-MARIO-SOUSA     
1 67365U 26004C   26155.21077290  .00005625  00000+0  61210-3 0  9996
2 67365  97.7991 153.9664 0008476 171.6156 188.5204 14.88405946 21366
LEMUR-2-SONNENBLUME     
1 67367U 26004E   26155.00589839  .00003453  00000+0  37968-3 0  9992
2 67367  97.7983 153.7541 0007988 174.6572 185.4731 14.88244849 21334
LEMUR-2-WOBLER          
1 67368U 26004F   26155.00106295  .00004646  00000+0  50648-3 0  9999
2 67368  97.8037 153.8581 0008529 163.6845 196.4648 14.88419567 21334
LEMUR-2-GRAM-E-SUE      
1 67370U 26004H   26154.99144458  .00002753  00000+0  30273-3 0  9991
2 67370  97.7971 153.7538 0007025 174.8290 185.3001 14.88409002 21335
LEMUR-2-KATIE           
1 67387U 26004AA  26154.99255338  .00004501  00000+0  47301-3 0  9992
2 67387  97.8032 154.1718 0004440 120.4962 239.6694 14.89945610 21341
LEMUR-2-HCS-BAZUS       
1 67388U 26004AB  26154.99164555  .00005192  00000+0  54476-3 0  9991
2 67388  97.8020 154.1536 0004108 115.6889 244.4753 14.89938139 21340
